OBJECT_NAME,OBJECT_ID,EPOCH,MEAN_MOTION,ECCENTRICITY,INCLINATION,RA_OF_ASC_NODE,ARG_OF_PERICENTER,MEAN_ANOMALY,EPHEMERIS_TYPE,CLASSIFICATION_TYPE,NORAD_CAT_ID,ELEMENT_SET_NO,REV_AT_EPOCH,BSTAR,MEAN_MOTION_DOT,MEAN_MOTION_DDOT
CUTE-1 (CO-55),2003-031E,2026-07-14T23:53:50.462016,14.24351484,.0010829,98.6743,204.2053,103.2306,257.0082,0,U,27844,999,19563,.78473E-4,.138E-5,0
CUBESAT XI-IV (CO-57),2003-031J,2026-07-14T23:57:20.839968,14.23634469,.0010551,98.6775,203.8980,120.0621,240.1606,0,U,27848,999,19533,.68348E-4,.112E-5,0
CUBESAT XI-V,2005-043F,2026-07-14T23:42:55.853280,14.72702031,.0015246,98.3014,352.1993,115.8586,244.4194,0,U,28895,999,10584,.11312E-3,.669E-5,0
CUTE-1.7+APD II (CO-65),2008-021C,2026-07-15T03:42:47.949696,15.09700819,.0007019,97.8292,178.1627,299.6614,60.3915,0,U,32785,999,98941,.17739E-3,.2792E-4,0
CANX-2,2008-021H,2026-07-15T04:46:59.493216,15.05806277,.0008698,97.8658,176.5279,318.2218,41.8343,0,U,32790,999,98902,.112E-3,.1559E-4,0
SEEDS II (CO-66),2008-021J,2026-07-14T22:30:43.403040,15.33661053,.000303,97.7521,195.1811,156.6912,203.4468,0,U,32791,999,99154,.32841E-3,.10608E-3,0
SWISSCUBE,2009-051B,2026-07-14T17:46:10.899552,14.62530263,.00078235,98.4008,104.1063,120.2894,239.9082,0,U,35932,999,89318,.10205829E-3,.468E-5,0
BEESAT-1,2009-051C,2026-07-14T16:41:56.910912,14.61761410,.00060926,98.3936,103.6385,131.1262,229.0465,0,U,35933,999,89320,.87927392E-4,.389E-5,0
ITUPSAT1,2009-051E,2026-07-15T04:34:09.441120,14.60478742,.0008086,98.4018,103.3025,143.1681,217.0076,0,U,35935,999,89282,.82054E-4,.349E-5,0
TISAT 1,2010-035E,2026-07-14T19:21:42.673824,15.32722087,.0004489,98.0714,144.8302,120.8068,239.3614,0,U,36799,999,87193,.38102586E-3,.11961E-3,0
STRAND-1,2013-009E,2026-07-15T01:03:05.768064,14.37178836,.0009402,98.3934,15.5943,141.5096,218.6763,0,U,39090,999,70106,.56627E-4,.126E-5,0
BRITE-AUSTRIA,2013-009F,2026-07-14T23:58:44.855328,14.36552492,.0010751,98.4008,14.7483,151.2074,208.9708,0,U,39091,999,70104,.41194E-4,.78E-6,0
NEE-01 PEGASO,2013-018B,2026-07-14T07:53:13.793568,14.93786198,.00136338,98.1252,340.3824,76.9613,283.3127,0,U,39151,999,71475,.10978396E-3,.1104E-4,0
POPACS 2,2013-055E,2026-07-14T11:31:30.475776,14.91996677,.04150238,80.9920,112.9412,106.1788,258.5512,0,U,39269,999,66728,.20479233E-3,.12593E-3,-.924519E-6
POPACS 3,2013-055F,2026-07-14T17:40:55.038432,14.56653048,.05488359,80.9987,199.3021,346.0677,12.5866,0,U,39270,999,64256,.19835755E-3,.8356E-4,0
ZACUBE-1 (TSHEPISOSAT),2013-066B,2026-07-15T04:49:51.621024,15.01328658,.0044024,97.8008,158.6764,155.1861,205.1493,0,U,39417,999,68493,.9673E-4,.1206E-4,0
WNISAT-1,2013-066H,2026-07-15T00:06:12.066048,14.58119771,.0163873,97.7234,343.1908,143.9126,217.3269,0,U,39423,999,67078,.11906E-3,.612E-5,0
TRITON-1,2013-066M,2026-07-15T04:26:54.640032,14.81797270,.0090578,97.8228,105.3533,142.1202,218.6431,0,U,39427,999,67823,.1862E-3,.1522E-4,0
GOMX-1,2013-066Q,2026-07-15T04:06:33.604992,14.69542762,.0128255,97.6467,34.8679,348.2912,11.5319,0,U,39430,999,67402,.11273E-3,.706E-5,0
CUBEBUG-2 (LO-74),2013-066AA,2026-07-14T20:38:50.433216,14.93965331,.00557382,97.8912,144.9614,296.4824,63.0685,0,U,39440,999,68112,.18583929E-3,.1977E-4,0
NEE-02 KRYSAOR,2013-066AB,2026-07-14T19:17:57.088608,14.86737925,.00654401,97.8897,134.8246,340.5806,19.2917,0,U,39441,999,68030,.13152608E-3,.1157E-4,0
FUNCUBE-1 (AO-73),2013-066AE,2026-07-14T23:04:14.519424,15.09815956,.0038012,97.8287,167.9955,108.4306,252.1060,0,U,39444,999,68385,.21388E-3,.3446E-4,0
UWE-3,2013-066AG,2026-07-14T19:39:20.661696,14.97197060,.00474932,97.8706,152.0848,225.7627,133.9691,0,U,39446,999,68171,.16664043E-3,.1907E-4,0
BRITE-CA1 (TORONTO),2014-033L,2026-07-14T21:28:29.466336,14.72722213,.0078412,97.9771,324.3173,187.2199,172.7886,0,U,40020,999,64629,.85757E-4,.52E-5,0
DUCHIFAT-1,2014-033M,2026-07-15T02:33:22.917600,15.70998070,.000276,98.0418,259.3300,247.0602,113.0368,0,U,40021,999,66012,.75655E-3,.95423E-3,0
NANOSATC-BR1,2014-033Q,2026-07-15T00:45:29.022624,15.32325644,.0005302,98.0712,230.9033,95.9115,264.2729,0,U,40024,999,65824,.33335E-3,.10322E-3,0
QB50P1,2014-033R,2026-07-15T00:35:22.225056,15.18664864,.0010342,98.0961,209.1307,125.0782,235.1421,0,U,40025,999,65725,.20589E-3,.4194E-4,0
QB50P2,2014-033Y,2026-07-14T23:11:12.418944,15.15504423,.0009327,98.0760,194.5840,84.2323,275.9971,0,U,40032,999,65687,.19636E-3,.3647E-4,0
PERSEUS-M2,2014-033AD,2026-07-15T03:55:46.771392,14.95593343,.0010809,97.9979,147.2775,198.9083,161.1737,0,U,40037,999,65496,.13378E-3,.1425E-4,0
PERSEUS-M1,2014-033AF,2026-07-14T19:11:56.393664,14.95714925,.00108849,97.9653,140.3879,197.5999,162.4845,0,U,40039,999,65476,.11563975E-3,.1228E-4,0
