CUTE-1 (CO-55)          
1 27844U 03031E   26195.99572294  .00000138  00000+0  78473-4 0  9996
2 27844  98.6743 204.2053 0010829 103.2306 257.0082 14.24351484195639
CUBESAT XI-IV (CO-57)   
1 27848U 03031J   26195.99815787  .00000112  00000+0  68348-4 0  9999
2 27848  98.6775 203.8980 0010551 120.0621 240.1606 14.23634469195339
CUBESAT XI-V            
1 28895U 05043F   26195.98814645  .00000669  00000+0  11312-3 0  9993
2 28895  98.3014 352.1993 0015246 115.8586 244.4194 14.72702031105846
CUTE-1.7+APD II (CO-65) 
1 32785U 08021C   26196.15472164  .00002792  00000+0  17739-3 0  9999
2 32785  97.8292 178.1627 0007019 299.6614  60.3915 15.09700819989415
CANX-2                  
1 32790U 08021H   26196.19929969  .00001559  00000+0  11200-3 0  9996
2 32790  97.8658 176.5279 0008698 318.2218  41.8343 15.05806277989021
SEEDS II (CO-66)        
1 32791U 08021J   26195.93800235  .00010608  00000+0  32841-3 0  9991
2 32791  97.7521 195.1811 0003030 156.6912 203.4468 15.33661053991545
SWISSCUBE               
1 35932U 09051B   26195.74040393  .00000468  00000+0  10206-3 0  9999
2 35932  98.4008 104.1063 0007823 120.2894 239.9082 14.62530263893188
BEESAT-1                
1 35933U 09051C   26195.69579758  .00000389  00000+0  87927-4 0  9993
2 35933  98.3936 103.6385 0006092 131.1262 229.0465 14.61761410893203
ITUPSAT1                
1 35935U 09051E   26196.19038705  .00000349  00000+0  82054-4 0  9995
2 35935  98.4018 103.3025 0008086 143.1681 217.0076 14.60478742892822
TISAT 1                 
1 36799U 10035E   26195.80674391  .00011961  00000+0  38103-3 0  9999
2 36799  98.0714 144.8302 0004489 120.8068 239.3614 15.32722087871930
STRAND-1                
1 39090U 13009E   26196.04381676  .00000126  00000+0  56627-4 0  9991
2 39090  98.3934  15.5943 0009402 141.5096 218.6763 14.37178836701062
BRITE-AUSTRIA           
1 39091U 13009F   26195.99913027  .00000078  00000+0  41194-4 0  9995
2 39091  98.4008  14.7483 0010751 151.2074 208.9708 14.36552492701041
NEE-01 PEGASO           
1 39151U 13018B   26195.32863187  .00001104  00000+0  10978-3 0  9996
2 39151  98.1252 340.3824 0013633  76.9613 283.3127 14.93786198714756
POPACS 2                
1 39269U 13055E   26195.48021384  .00012593 -92452-6  20479-3 0  9990
2 39269  80.9920 112.9412 0415023 106.1788 258.5512 14.91996677667281
POPACS 3                
1 39270U 13055F   26195.73674813  .00008356  00000+0  19836-3 0  9998
2 39270  80.9987 199.3021 0548835 346.0677  12.5866 14.56653048642568
ZACUBE-1 (TSHEPISOSAT)  
1 39417U 13066B   26196.20129191  .00001206  00000+0  96730-4 0  9996
2 39417  97.8008 158.6764 0044024 155.1861 205.1493 15.01328658684939
WNISAT-1                
1 39423U 13066H   26196.00430632  .00000612  00000+0  11906-3 0  9997
2 39423  97.7234 343.1908 0163873 143.9126 217.3269 14.58119771670789
TRITON-1                
1 39427U 13066M   26196.18535463  .00001522  00000+0  18620-3 0  9999
2 39427  97.8228 105.3533 0090578 142.1202 218.6431 14.81797270678231
GOMX-1                  
1 39430U 13066Q   26196.17122228  .00000706  00000+0  11273-3 0  9993
2 39430  97.6467  34.8679 0128255 348.2912  11.5319 14.69542762674024
CUBEBUG-2 (LO-74)       
1 39440U 13066AA  26195.86030594  .00001977  00000+0  18584-3 0  9996
2 39440  97.8912 144.9614 0055738 296.4824  63.0685 14.93965331681120
NEE-02 KRYSAOR          
1 39441U 13066AB  26195.80413297  .00001157  00000+0  13153-3 0  9993
2 39441  97.8897 134.8246 0065440 340.5806  19.2917 14.86737925680302
FUNCUBE-1 (AO-73)       
1 39444U 13066AE  26195.96127916  .00003446  00000+0  21388-3 0  9995
2 39444  97.8287 167.9955 0038012 108.4306 252.1060 15.09815956683850
UWE-3                   
1 39446U 13066AG  26195.81898914  .00001907  00000+0  16664-3 0  9995
2 39446  97.8706 152.0848 0047493 225.7627 133.9691 14.97197060681710
BRITE-CA1 (TORONTO)     
1 40020U 14033L   26195.89478549  .00000520  00000+0  85757-4 0  9996
2 40020  97.9771 324.3173 0078412 187.2199 172.7886 14.72722213646297
DUCHIFAT-1              
1 40021U 14033M   26196.10651525  .00095423  00000+0  75655-3 0  9990
2 40021  98.0418 259.3300 0002760 247.0602 113.0368 15.70998070660120
NANOSATC-BR1            
1 40024U 14033Q   26196.03158591  .00010322  00000+0  33335-3 0  9994
2 40024  98.0712 230.9033 0005302  95.9115 264.2729 15.32325644658241
QB50P1                  
1 40025U 14033R   26196.02456279  .00004194  00000+0  20589-3 0  9995
2 40025  98.0961 209.1307 0010342 125.0782 235.1421 15.18664864657255
QB50P2                  
1 40032U 14033Y   26195.96611596  .00003647  00000+0  19636-3 0  9993
2 40032  98.0760 194.5840 0009327  84.2323 275.9971 15.15504423656877
PERSEUS-M2              
1 40037U 14033AD  26196.16373578  .00001425  00000+0  13378-3 0  9995
2 40037  97.9979 147.2775 0010809 198.9083 161.1737 14.95593343654967
PERSEUS-M1              
1 40039U 14033AF  26195.79995826  .00001228  00000+0  11564-3 0  9997
2 40039  97.9653 140.3879 0010884 197.5999 162.4845 14.95714925654764
